OBJECT_NAME,OBJECT_ID,EPOCH,MEAN_MOTION,ECCENTRICITY,INCLINATION,RA_OF_ASC_NODE,ARG_OF_PERICENTER,MEAN_ANOMALY,EPHEMERIS_TYPE,CLASSIFICATION_TYPE,NORAD_CAT_ID,ELEMENT_SET_NO,REV_AT_EPOCH,BSTAR,MEAN_MOTION_DOT,MEAN_MOTION_DDOT
SAUDISAT 1C (SO-50),2002-058C,2026-07-14T19:14:56.096160,14.83097966,.0074548,64.5518,43.5419,257.3375,101.9390,0,U,27607,999,26855,.62311E-4,.375E-5,0
SAUDISAT 2,2004-025F,2026-07-14T13:45:28.511424,14.56698056,.00240295,98.5521,196.2643,210.1532,149.8283,0,U,28371,999,16973,.33517359E-4,.1E-5,0
SAUDISAT 3,2007-012B,2026-07-14T20:49:07.691232,14.71440220,.0015574,98.1467,146.2884,135.6886,224.5570,0,U,31118,999,3181,.23874E-4,.97E-6,0
PISAT,2016-059B,2026-07-14T19:09:52.087392,14.69029285,.0030434,97.8191,195.0663,116.0496,244.3849,0,U,41784,999,52379,.85213E-4,.456E-5,0
FLYING LAPTOP,2017-042G,2026-07-14T20:19:25.043232,15.01312785,.0019713,97.4797,350.3387,33.6563,326.5909,0,U,42831,999,49060,.18652E-3,.2352E-4,0
SALSAT,2020-068K,2026-07-14T13:10:14.011392,15.30166467,.0009148,97.8856,200.2874,195.2534,164.8431,0,U,46495,999,31954,.14541E-3,.4163E-4,0
