SAUDISAT 1C (SO-50)     
1 27607U 02058C   26195.80203815  .00000375  00000+0  62311-4 0  9998
2 27607  64.5518  43.5419 0074548 257.3375 101.9390 14.83097966268551
SAUDISAT 2              
1 28371U 04025F   26195.57324666  .00000100  00000+0  33517-4 0  9997
2 28371  98.5521 196.2643 0024029 210.1532 149.8283 14.56698056169736
SAUDISAT 3              
1 31118U 07012B   26195.86745013  .00000097  00000+0  23874-4 0  9994
2 31118  98.1467 146.2884 0015574 135.6886 224.5570 14.71440220 31816
PISAT                   
1 41784U 16059B   26195.79851953  .00000456  00000+0  85213-4 0  9992
2 41784  97.8191 195.0663 0030434 116.0496 244.3849 14.69029285523798
FLYING LAPTOP           
1 42831U 17042G   26195.84681763  .00002352  00000+0  18652-3 0  9994
2 42831  97.4797 350.3387 0019713  33.6563 326.5909 15.01312785490605
SALSAT                  
1 46495U 20068K   26195.54877328  .00004163  00000+0  14541-3 0  9992
2 46495  97.8856 200.2874 0009148 195.2534 164.8431 15.30166467319545
